     3.02           N: GNSS NAV DATA    G: GPS              RINEX VERSION / TYPE
BINEX2RINEX  2.03   GSI, JAPAN          20200319 21:17:04UTCPGM / RUN BY / DATE
                                                            END OF HEADER
G11 2020 03 18 14 00 00-3.305417485535D-04 1.080024958355D-11 0.000000000000D+00
     5.100000000000D+01 1.531250000000D+01 5.529516040824D-09 1.874603391636D+00
     6.668269634247D-07 1.589638076257D-02 1.797452569008D-06 5.153717996597D+03
     3.096000000000D+05 3.147870302200D-07-2.427364882748D+00 6.705522537231D-08
     9.122396459858D-01 3.153125000000D+02 1.968248764341D+00-8.652503268634D-09
     8.036049019412D-11 1.000000000000D+00 2.097000000000D+03 0.000000000000D+00
     2.000000000000D+00 0.000000000000D+00-1.257285475731D-08 5.100000000000D+01
     3.024180000000D+05 4.000000000000D+00
G02 2020 03 18 13 59 44-4.240362904966D-04-6.707523425575D-12 0.000000000000D+00
     3.200000000000D+01-3.990625000000D+01 4.410183701853D-09 2.618862437812D+00
    -2.071261405945D-06 1.979809708428D-02 2.916902303696D-06 5.153660867691D+03
     3.095840000000D+05 1.899898052216D-07-2.032174068275D+00-1.415610313416D-07
     9.581332220946D-01 3.170937500000D+02-1.646215704932D+00-7.917472651659D-09
    -8.928943354902D-12 1.000000000000D+00 2.097000000000D+03 0.000000000000D+00
     2.000000000000D+00 0.000000000000D+00-1.769512891769D-08 3.200000000000D+01
     3.056280000000D+05 4.000000000000D+00
G12 2020 03 18 14 00 00 1.393388956785D-04-4.206412995700D-12 0.000000000000D+00
     1.030000000000D+02 4.425000000000D+01 3.971951161995D-09 9.566867837875D-01
     2.300366759300D-06 8.072073454969D-03 9.190291166306D-06 5.153731836319D+03
     3.096000000000D+05-1.247972249985D-07 2.294914251864D+00 1.490116119385D-08
     9.790624581327D-01 2.140625000000D+02 1.119910329492D+00-7.826397429439D-09
    -4.032310819074D-10 1.000000000000D+00 2.097000000000D+03 0.000000000000D+00
     2.000000000000D+00 0.000000000000D+00-1.257285475731D-08 1.030000000000D+02
     3.067980000000D+05 4.000000000000D+00
G17 2020 03 18 16 00 00 2.341424115002D-04 6.366462912410D-12 0.000000000000D+00
     4.000000000000D+01 6.531250000000D+01 4.081955744127D-09-8.106737670849D-01
     3.514811396599D-06 1.328679930884D-02 5.900859832764D-06 5.153670888901D+03
     3.168000000000D+05-1.806765794754D-07-2.954691657350D+00 1.154839992523D-07
     9.843814190716D-01 2.824687500000D+02-1.645640814700D+00-8.209627678231D-09
     1.353627812603D-10 1.000000000000D+00 2.097000000000D+03 0.000000000000D+00
     2.000000000000D+00 0.000000000000D+00-1.117587089539D-08 4.000000000000D+01
     3.096180000000D+05 4.000000000000D+00
G04 2020 03 18 16 00 00-6.398698315024D-05-5.229594535194D-12 0.000000000000D+00
     4.300000000000D+01 1.075000000000D+01 4.663765693132D-09-1.669723557911D+00
     3.911554813385D-07 6.180839845911D-04 8.381903171539D-06 5.153705688477D+03
     3.168000000000D+05 4.284083843231D-08 1.623354008239D-01 2.793967723846D-08
     9.603797712609D-01 2.153437500000D+02-2.684173637189D+00-7.967474734446D-09
     4.100170788571D-10 1.000000000000D+00 2.097000000000D+03 0.000000000000D+00
     2.000000000000D+00 0.000000000000D+00-4.190951585770D-09 4.300000000000D+01
     3.096180000000D+05 4.000000000000D+00
G06 2020 03 18 16 00 00-2.337396144867D-04-8.412825991400D-12 0.000000000000D+00
     3.500000000000D+01-4.490625000000D+01 4.194103272665D-09-2.693543778167D+00
    -2.330169081688D-06 1.933564082719D-03 3.429129719734D-06 5.153770259857D+03
     3.168000000000D+05 1.173466444016D-07-1.965614261004D+00-2.235174179077D-08
     9.786572444539D-01 3.249062500000D+02-1.093676700253D+00-8.072121950566D-09
    -4.321608583773D-11 1.000000000000D+00 2.097000000000D+03 0.000000000000D+00
     2.000000000000D+00 0.000000000000D+00 4.656612873077D-09 3.500000000000D+01
     3.096180000000D+05 4.000000000000D+00
G19 2020 03 18 16 00 00-1.840880140662D-04 5.115907697473D-12 0.000000000000D+00
     6.100000000000D+01 5.828125000000D+01 4.018738825174D-09 1.888194250230D+00
     2.732500433922D-06 9.261334897019D-03 5.310401320457D-06 5.153679841995D+03
     3.168000000000D+05 9.872019290924D-08-2.908975454207D+00-1.359730958939D-07
     9.824924085467D-01 2.860937500000D+02 1.574254414975D+00-7.896757503075D-09
     5.071639825584D-11 1.000000000000D+00 2.097000000000D+03 0.000000000000D+00
     2.000000000000D+00 0.000000000000D+00-1.536682248116D-08 6.100000000000D+01
     3.096180000000D+05 4.000000000000D+00
G02 2020 03 18 16 00 00-4.240847192705D-04-6.707523425575D-12 0.000000000000D+00
     3.300000000000D+01-3.928125000000D+01 4.501258924073D-09-2.611807303252D+00
    -1.942738890648D-06 1.979942561593D-02 2.564862370491D-06 5.153658447266D+03
     3.168000000000D+05 2.458691596985D-07-2.032231827207D+00-1.117587089539D-08
     9.581335322332D-01 3.271875000000D+02-1.646208270382D+00-7.933901907432D-09
     9.428964182777D-11 1.000000000000D+00 2.097000000000D+03 0.000000000000D+00
     2.000000000000D+00 0.000000000000D+00-1.769512891769D-08 3.300000000000D+01
     3.096180000000D+05 4.000000000000D+00
G12 2020 03 18 16 00 00 1.393086276948D-04-4.206412995700D-12 0.000000000000D+00
     1.040000000000D+02 3.553125000000D+01 3.940521281385D-09 2.006729834021D+00
     1.590698957443D-06 8.072632947005D-03 9.171664714813D-06 5.153733409882D+03
     3.168000000000D+05-6.705522537231D-08 2.294857901723D+00-1.695007085800D-07
     9.790604144361D-01 2.105312500000D+02 1.120007762762D+00-7.667819395456D-09
    -3.410856361573D-10 1.000000000000D+00 2.097000000000D+03 0.000000000000D+00
     2.800000000000D+00 0.000000000000D+00-1.257285475731D-08 1.040000000000D+02
     3.096180000000D+05 4.000000000000D+00
G09 2020 03 18 16 00 00-1.791911199689D-04-8.071765478235D-12 0.000000000000D+00
     8.000000000000D+01 7.468750000000D+00 4.838772982889D-09-3.506093939571D-01
     1.247972249985D-07 1.667483244091D-03 8.799135684967D-06 5.153767259598D+03
     3.168000000000D+05 2.980232238770D-08 1.149930823120D-01-1.117587089539D-08
     9.530878092814D-01 2.075000000000D+02 1.798003285002D+00-8.081765209389D-09
     4.043025551100D-10 1.000000000000D+00 2.097000000000D+03 0.000000000000D+00
     2.000000000000D+00 0.000000000000D+00 1.396983861923D-09 8.000000000000D+01
     3.096180000000D+05 4.000000000000D+00
G05 2020 03 18 16 00 00-9.323935955763D-06-6.821210263297D-13 0.000000000000D+00
     8.800000000000D+01-7.815625000000D+01 4.528045754138D-09 3.922189285784D-02
    -3.995373845100D-06 5.766128539108D-03 8.665025234222D-06 5.153625375748D+03
     3.168000000000D+05 2.235174179077D-08-9.469291377538D-01 9.872019290924D-08
     9.519664562411D-01 2.087187500000D+02 7.879290116746D-01-8.111052143593D-09
     1.000041655749D-10 1.000000000000D+00 2.097000000000D+03 0.000000000000D+00
     2.800000000000D+00 0.000000000000D+00-1.117587089539D-08 8.800000000000D+01
     3.098820000000D+05 4.000000000000D+00
G07 2020 03 18 16 00 00-2.385736443102D-04-8.526512829121D-12 0.000000000000D+00
     5.000000000000D+00 1.215625000000D+01 4.991279335390D-09 2.665467947393D+00
     4.936009645462D-07 1.345318136737D-02 6.586313247681D-06 5.153679267883D+03
     3.168000000000D+05-4.097819328308D-08 1.189334571324D+00-2.328306436539D-07
     9.533690713743D-01 2.504062500000D+02-2.411701790454D+00-7.979618097409D-09
    -1.946509651369D-10 1.000000000000D+00 2.097000000000D+03 0.000000000000D+00
     2.000000000000D+00 0.000000000000D+00-1.117587089539D-08 5.000000000000D+00
     3.126660000000D+05 4.000000000000D+00
G05 2020 03 18 15 59 44-9.325798600912D-06-6.821210263297D-13 0.000000000000D+00
     3.900000000000D+01-7.815625000000D+01 4.528045754138D-09 3.688850633721D-02
    -3.995373845100D-06 5.766127258539D-03 8.665025234222D-06 5.153625385284D+03
     3.167840000000D+05 2.235174179077D-08-9.469290002395D-01 9.872019290924D-08
     9.519664518524D-01 2.087187500000D+02 7.879285771879D-01-8.111052143593D-09
     1.000041655749D-10 1.000000000000D+00 2.097000000000D+03 0.000000000000D+00
     2.000000000000D+00 0.000000000000D+00-1.117587089539D-08 3.900000000000D+01
     3.139560000000D+05 4.000000000000D+00
G30 2020 03 18 16 00 00-1.782625913620D-04-8.753886504564D-12 0.000000000000D+00
     8.500000000000D+01 1.215625000000D+01 5.428797559780D-09 2.658303971728D+00
     6.742775440216D-07 4.351680632681D-03 6.267800927162D-06 5.153669134140D+03
     3.168000000000D+05-1.043081283569D-07 1.213064350439D+00-5.215406417847D-08
     9.386987006602D-01 2.499687500000D+02-2.922833947812D+00-8.367134239012D-09
    -1.825076021742D-10 1.000000000000D+00 2.097000000000D+03 0.000000000000D+00
     2.000000000000D+00 0.000000000000D+00 3.725290298462D-09 8.500000000000D+01
     3.144360000000D+05 4.000000000000D+00
G13 2020 03 18 16 00 00-4.824250936508D-06 2.842170943040D-12 0.000000000000D+00
     5.800000000000D+01 1.762500000000D+01 4.518402495315D-09-1.533037736764D+00
     9.909272193909D-07 4.149382584728D-03 8.193776011467D-06 5.153658346176D+03
     3.168000000000D+05 4.842877388000D-08 2.567301913515D-01 3.166496753693D-08
     9.682577182433D-01 2.246875000000D+02 1.135919753011D+00-7.898900449481D-09
     3.807301446530D-10 1.000000000000D+00 2.097000000000D+03 0.000000000000D+00
     2.000000000000D+00 0.000000000000D+00-1.117587089539D-08 5.800000000000D+01
     3.153660000000D+05 4.000000000000D+00
G29 2020 03 18 16 00 00-5.958322435617D-05-9.322320693173D-12 0.000000000000D+00
     3.300000000000D+01 6.312500000000D+01 3.866232472673D-09-3.433866835937D-01
     3.252178430557D-06 1.217575976625D-03 5.569308996201D-06 5.153615758896D+03
     3.168000000000D+05-4.097819328308D-08-2.943060949525D+00 2.980232238770D-08
     9.860040307513D-01 2.850000000000D+02 1.867232449635D+00-7.872470777150D-09
     7.607459738377D-11 1.000000000000D+00 2.097000000000D+03 0.000000000000D+00
     2.000000000000D+00 0.000000000000D+00-1.024454832077D-08 3.300000000000D+01
     3.166620000000D+05 4.000000000000D+00
